{"type":"FeatureCollection","features":[{"type":"Feature","geometry":{"type":"Polygon","coordinates":[[[30.396094,-15.643066],[30.231836,-14.990332],[32.99209,-14.022168],[32.67207,-13.610352],[33.397949,-12.489844],[33.261328,-10.893359],[33.659082,-10.590527],[32.919922,-9.407422],[31.942578,-9.054004],[30.751172,-8.193652],[28.972266,-8.464941],[28.400684,-9.224805],[28.638867,-10.669238],[28.357227,-11.483008],[29.064355,-12.348828],[29.795117,-12.155469],[29.795313,-13.392773],[29.014258,-13.368848],[28.357715,-12.482031],[26.949609,-11.898828],[26.025977,-11.890137],[24.518555,-11.438477],[23.843164,-13.000977],[21.978906,-13.000977],[21.979785,-15.955566],[22.150684,-16.597168],[23.380664,-17.640625],[24.932422,-17.543457],[25.863281,-17.951953],[27.020801,-17.958398],[28.913086,-15.987793],[30.396094,-15.643066]]]},"properties":{"name":"Zambia","iso":"ZMB","country":null,"interactive":false}},{"type":"Feature","geometry":{"type":"Polygon","coordinates":[[[33.903223,-1.002051],[33.943164,0.173779],[34.787598,1.230713],[34.964063,2.062402],[34.392871,3.691504],[33.976074,4.220215],[33.489355,3.755078],[32.099414,3.529199],[31.798047,3.802637],[30.929395,3.634082],[30.728613,2.455371],[31.252734,2.04458],[29.942871,0.819238],[29.57998,-1.356738],[30.844727,-1.002051],[33.903223,-1.002051]]]},"properties":{"name":"Uganda","iso":"UGA","country":null,"interactive":false}},{"type":"Feature","geometry":{"type":"MultiPolygon","coordinates":[[[[39.496484,-6.174609],[39.368262,-5.951172],[39.192383,-5.931055],[39.182324,-6.172559],[39.243457,-6.275],[39.573047,-6.387402],[39.496484,-6.174609]]],[[[39.865039,-4.906152],[39.673438,-4.927051],[39.701074,-5.113672],[39.646777,-5.368555],[39.749316,-5.443848],[39.853027,-5.255469],[39.865039,-4.906152]]],[[[32.919922,-9.407422],[33.130469,-9.495898],[33.330859,-9.519141],[33.420898,-9.608008],[33.697656,-9.598145],[33.943945,-9.672168],[33.995605,-9.49541],[34.320898,-9.731543],[34.524219,-10.030176],[34.583594,-10.525098],[34.661816,-10.710059],[34.597656,-11.0375],[34.773828,-11.341699],[34.937012,-11.463477],[34.959473,-11.578125],[35.630957,-11.582031],[35.785449,-11.45293],[36.082227,-11.537305],[36.191309,-11.670703],[36.518652,-11.716211],[36.978906,-11.566992],[37.218359,-11.686523],[37.541699,-11.675098],[37.829297,-11.481934],[37.920215,-11.294727],[38.176563,-11.278711],[38.491797,-11.413281],[38.794727,-11.228906],[39.321582,-11.122559],[39.563477,-10.978516],[39.988672,-10.820801],[40.463574,-10.464355],[40.38877,-10.353516],[40.083691,-10.156641],[39.983594,-10.15957],[39.783789,-9.914551],[39.625488,-9.409473],[39.641309,-9.19248],[39.45127,-8.942969],[39.304004,-8.443848],[39.441016,-8.011523],[39.428418,-7.812793],[39.330469,-7.74668],[39.288477,-7.517871],[39.353125,-7.341406],[39.519238,-7.124121],[39.472363,-6.878613],[39.287305,-6.814941],[39.228418,-6.685254],[38.874023,-6.33125],[38.804688,-6.070117],[38.819238,-5.877637],[38.978223,-5.518555],[39.201855,-4.776465],[39.190137,-4.677246],[37.797266,-3.674414],[37.608691,-3.460254],[37.687988,-3.246191],[37.643848,-3.04541],[36.902637,-2.631641],[35.836914,-2.036621],[34.984277,-1.560547],[33.979395,-1.002051],[32.371875,-1.002051],[30.741992,-1.00752],[30.470215,-1.131152],[30.812598,-1.563086],[30.819141,-1.96748],[30.876563,-2.143359],[30.828711,-2.338477],[30.533691,-2.42627],[30.424219,-2.641602],[30.424023,-2.824023],[30.515039,-2.917578],[30.780273,-2.984863],[30.790234,-3.274609],[30.425,-3.588867],[30.147168,-4.085352],[29.947266,-4.307324],[29.717773,-4.455859],[29.403223,-4.449316],[29.325684,-4.835645],[29.342773,-4.983105],[29.594141,-5.650781],[29.596387,-5.775977],[29.480078,-6.025],[29.54082,-6.313867],[29.709668,-6.616895],[30.10625,-6.915039],[30.313184,-7.203711],[30.406738,-7.460645],[30.720898,-8.104395],[30.830664,-8.385547],[31.076367,-8.611914],[31.350586,-8.607031],[31.534863,-8.713281],[31.673633,-8.908789],[31.918652,-8.942188],[31.942578,-9.054004],[32.433203,-9.156348],[32.487109,-9.212695],[32.919922,-9.407422]]]]},"properties":{"name":"United Republic of Tanzania","iso":"TZA","country":"tanzania","interactive":true}},{"type":"Feature","geometry":{"type":"Polygon","coordinates":[[[33.976074,4.220215],[35.268359,5.492285],[34.710645,6.660303],[33.666113,7.670996],[33.234277,8.396387],[34.094531,8.582227],[33.892188,10.198975],[33.172168,10.850146],[32.404102,11.057764],[31.224902,9.799268],[30.003027,10.277393],[28.844531,9.326074],[27.88584,9.599658],[26.551367,9.52583],[25.798047,10.420508],[25.066992,10.293799],[24.291406,8.291406],[24.85332,8.137549],[25.380664,7.333398],[26.361816,6.635303],[26.514258,6.069238],[28.19209,4.350244],[29.676855,4.586914],[30.559375,3.652783],[31.798047,3.802637],[32.099414,3.529199],[33.489355,3.755078],[33.976074,4.220215]]]},"properties":{"name":"South Sudan","iso":"SSD","country":null,"interactive":false}},{"type":"Feature","geometry":{"type":"Polygon","coordinates":[[[41.532715,-1.695312],[44.332715,1.390967],[47.975293,4.497021],[50.825,9.428174],[51.254883,11.830713],[48.938574,11.258447],[48.938086,9.451758],[47.978223,7.99707],[44.940527,4.912012],[42.024121,4.137939],[40.964453,2.814648],[40.978711,-0.870313],[41.532715,-1.695312]]]},"properties":{"name":"Somalia","iso":"SOM","country":null,"interactive":false}},{"type":"Feature","geometry":{"type":"Polygon","coordinates":[[[29.576953,-1.387891],[29.35166,-1.517578],[29.129395,-1.860254],[29.148047,-2.131836],[29.106445,-2.233203],[28.876367,-2.400293],[28.921777,-2.682031],[29.063184,-2.602539],[29.29707,-2.673047],[29.390234,-2.808594],[29.698047,-2.794727],[29.868164,-2.716406],[29.930176,-2.339551],[30.142285,-2.413965],[30.408496,-2.312988],[30.593359,-2.396777],[30.828711,-2.338477],[30.876563,-2.143359],[30.819141,-1.96748],[30.812598,-1.563086],[30.710742,-1.396777],[30.360254,-1.074609],[30.101562,-1.368652],[29.881641,-1.451758],[29.825391,-1.335547],[29.576953,-1.387891]]]},"properties":{"name":"Rwanda","iso":"RWA","country":"rwanda","interactive":true}},{"type":"Feature","geometry":{"type":"Polygon","coordinates":[[[31.287891,-22.402051],[31.98584,-24.460645],[32.112891,-26.839453],[32.886133,-26.849316],[32.792188,-25.644336],[35.155957,-24.541406],[35.575391,-22.963086],[35.267676,-21.650977],[34.698145,-20.404395],[34.947852,-19.812695],[36.540137,-18.518164],[37.244531,-17.739941],[39.084375,-16.972852],[39.844629,-16.435645],[40.558984,-15.473438],[40.580859,-12.635547],[40.402832,-11.332031],[39.988672,-10.820801],[37.541699,-11.675098],[34.618555,-11.620215],[34.36084,-12.210547],[34.563672,-13.360156],[35.847168,-14.670898],[35.755273,-16.058301],[35.167188,-16.560254],[34.395508,-16.199219],[34.54082,-15.297266],[34.33252,-14.408594],[33.636426,-14.568164],[33.201758,-14.013379],[30.231836,-14.990332],[30.437793,-15.995313],[31.23623,-16.023633],[32.948047,-16.712305],[32.993066,-18.35957],[32.716504,-19.001855],[33.006738,-19.873828],[32.371094,-21.334863],[31.287891,-22.402051]]]},"properties":{"name":"Mozambique","iso":"MOZ","country":null,"interactive":false}},{"type":"Feature","geometry":{"type":"Polygon","coordinates":[[[33.201758,-14.013379],[33.636426,-14.568164],[34.33252,-14.408594],[34.54082,-15.297266],[34.395508,-16.199219],[35.167188,-16.560254],[35.755273,-16.058301],[35.847168,-14.670898],[35.247461,-13.896875],[34.563672,-13.360156],[34.36084,-12.210547],[34.65957,-11.588672],[34.661816,-10.710059],[34.320898,-9.731543],[33.420898,-9.608008],[33.659082,-10.590527],[33.261328,-10.893359],[33.397949,-12.489844],[33.021582,-12.630469],[32.67207,-13.610352],[33.201758,-14.013379]]]},"properties":{"name":"Malawi","iso":"MWI","country":null,"interactive":false}},{"type":"Feature","geometry":{"type":"Polygon","coordinates":[[[33.903223,-1.002051],[37.643848,-3.04541],[37.797266,-3.674414],[39.190137,-4.677246],[41.521875,-1.572266],[40.978711,-0.870313],[40.964453,2.814648],[41.883984,3.977734],[40.765234,4.273047],[39.494434,3.456104],[38.086133,3.648828],[36.905566,4.411475],[36.081934,4.449707],[35.268359,5.492285],[33.976074,4.220215],[34.964063,2.062402],[34.787598,1.230713],[33.943164,0.173779],[33.903223,-1.002051]]]},"properties":{"name":"Kenya","iso":"KEN","country":"kenya","interactive":true}},{"type":"Feature","geometry":{"type":"Polygon","coordinates":[[[35.268359,5.492285],[36.081934,4.449707],[36.905566,4.411475],[38.086133,3.648828],[39.494434,3.456104],[40.765234,4.273047],[41.220898,3.943555],[42.791602,4.291992],[44.028125,4.950977],[44.940527,4.912012],[47.978223,7.99707],[46.978223,7.99707],[44.022852,8.986035],[42.841602,10.203076],[42.65498,11.07832],[41.766504,11.589111],[42.378516,12.466406],[40.769531,14.144482],[37.88418,14.852295],[36.524316,14.256836],[36.10752,12.726465],[34.275684,10.528125],[34.094531,8.582227],[33.234277,8.396387],[34.710645,6.660303],[35.268359,5.492285]]]},"properties":{"name":"Ethiopia","iso":"ETH","country":null,"interactive":false}},{"type":"Feature","geometry":{"type":"Polygon","coordinates":[[[30.751172,-8.193652],[29.709668,-6.616895],[29.342773,-4.983105],[29.224414,-3.053516],[28.921777,-2.682031],[29.576953,-1.387891],[29.942871,0.819238],[31.252734,2.04458],[30.728613,2.455371],[30.906445,3.408936],[29.676855,4.586914],[28.19209,4.350244],[27.40332,5.10918],[25.525098,5.312109],[22.755762,4.64668],[22.422168,4.134961],[20.558105,4.462695],[19.500977,5.12749],[18.56748,4.257568],[18.622168,3.304053],[18.072168,2.013281],[17.752832,-0.549023],[16.879883,-1.225879],[16.215332,-2.177832],[16.146777,-3.46416],[14.70791,-4.881738],[14.358301,-4.299414],[12.522363,-5.148926],[13.00332,-5.836133],[16.315234,-5.865625],[17.536035,-8.075879],[19.34082,-7.966602],[19.527637,-7.144434],[21.751074,-7.305469],[21.813184,-9.46875],[22.561035,-11.055859],[24.319922,-11.071777],[24.518555,-11.438477],[26.025977,-11.890137],[26.949609,-11.898828],[28.357715,-12.482031],[29.014258,-13.368848],[29.795313,-13.392773],[29.795117,-12.155469],[29.064355,-12.348828],[28.357227,-11.483008],[28.638867,-10.669238],[28.400684,-9.224805],[28.972266,-8.464941],[30.751172,-8.193652]]]},"properties":{"name":"Democratic Republic of the Congo","iso":"COD","country":null,"interactive":false}},{"type":"Feature","geometry":{"type":"Polygon","coordinates":[[[30.553613,-2.400098],[30.408496,-2.312988],[30.142285,-2.413965],[29.930176,-2.339551],[29.868164,-2.716406],[29.698047,-2.794727],[29.390234,-2.808594],[29.29707,-2.673047],[29.063184,-2.602539],[29.016602,-2.799609],[29.224414,-3.053516],[29.210059,-3.363281],[29.223242,-3.91084],[29.331348,-4.09541],[29.403223,-4.449316],[29.717773,-4.455859],[29.947266,-4.307324],[30.147168,-4.085352],[30.425,-3.588867],[30.790234,-3.274609],[30.780273,-2.984863],[30.515039,-2.917578],[30.424023,-2.824023],[30.424219,-2.641602],[30.553613,-2.400098]]]},"properties":{"name":"Burundi","iso":"BDI","country":null,"interactive":false}}]}